GLOBALSTAR M094 [+]     
1 39074U 13005C   24035.55480026 -.00000070  00000+0  19041-3 0  9991
2 39074  51.9941 260.3071 0000673  75.4134 284.6807 12.62262641509408
GLOBALSTAR M096 [+]     
1 39075U 13005D   24035.17228931 -.00000080  00000+0  13141-3 0  9991
2 39075  52.0091 309.5984 0000325  56.6855 303.4043 12.62272054508276
GLOBALSTAR M078 [+]     
1 39076U 13005E   24035.38360728 -.00000103  00000+0  67878-5 0  9990
2 39076  51.9890  34.1406 0001211 141.4991 218.5962 12.62259579506924
GLOBALSTAR M095 [+]     
1 39077U 13005F   24035.40957681 -.00000102  00000+0  12426-4 0  9991
2 39077  51.9818  31.5033 0000652 168.4468 191.6414 12.62262925506784
GLOBALSTAR M087 [+]     
1 52888U 22064A   24035.20502572 -.00000085  00000+0  82874-4 0  9998
2 52888  51.9775 315.5699 0009933  27.1978 332.9442 13.37564150 79595
